[{"OBJECT_NAME":"XINGCHI-1 02A","OBJECT_ID":"2023-187A","EPOCH":"2026-03-09T23:04:08.143968","MEAN_MOTION":14.83941707,"ECCENTRICITY":0.00129983,"INCLINATION":97.9289,"RA_OF_ASC_NODE":152.4493,"ARG_OF_PERICENTER":107.7804,"MEAN_ANOMALY":252.483,"EPHEMERIS_TYPE":0,"CLASSIFICATION_TYPE":"U","NORAD_CAT_ID":58496,"ELEMENT_SET_NO":999,"REV_AT_EPOCH":12240,"BSTAR":0.00036146838,"MEAN_MOTION_DOT":2.955e-5,"MEAN_MOTION_DDOT":0},{"OBJECT_NAME":"NOAA 16 DEB","OBJECT_ID":"2000-055MU","EPOCH":"2026-03-07T08:24:35.897472","MEAN_MOTION":14.74621786,"ECCENTRICITY":0.00249921,"INCLINATION":98.8646,"RA_OF_ASC_NODE":209.8947,"ARG_OF_PERICENTER":270.3207,"MEAN_ANOMALY":89.5136,"EPHEMERIS_TYPE":0,"CLASSIFICATION_TYPE":"U","NORAD_CAT_ID":41520,"ELEMENT_SET_NO":999,"REV_AT_EPOCH":51175,"BSTAR":0.011935935,"MEAN_MOTION_DOT":0.0008086,"MEAN_MOTION_DDOT":0}]
